NORAD_CAT_ID,OBJECT_NAME,OBJECT_TYPE,EPOCH,MEAN_MOTION,ECCENTRICITY,INCLINATION,RA_OF_ASC_NODE,ARG_OF_PERICENTER,MEAN_ANOMALY,BSTAR,MEAN_MOTION_DOT,MEAN_MOTION_DDOT,TLE_LINE0,TLE_LINE1,TLE_LINE2,SEMIMAJOR_AXIS,PERIOD,APOGEE,PERIGEE,DECAYED
53003.0,STARLINK-4255,PAYLOAD,2024-07-07 14:13:17,15.08844923,0.0001247,53.2175,312.96,101.5772,258.536,1.4739e-05,-5.3e-07,0.0,0 STARLINK-4255,1 53003U 22076T   24189.59256649 -.00000053  00000-0  14739-4 0  9995,2 53003  53.2175 312.9600 0001247 101.5772 258.5360 15.08844923110740,6917.865,95.437,540.593,538.868,0.0
53003.0,STARLINK-4255,PAYLOAD,2024-07-08 12:28:42,15.08833628,0.0001527,53.2181,308.7966,83.2647,276.8519,0.00013233,1.818e-05,0.0,0 STARLINK-4255,1 53003U 22076T   24190.51993334  .00001818  00000-0  13233-3 0  9994,2 53003  53.2181 308.7966 0001527  83.2647 276.8519 15.08833628111350,6917.9,95.438,540.821,538.709,0.0
53003.0,STARLINK-4255,PAYLOAD,2024-07-08 14:04:05,15.08837944,0.000122,53.2166,308.4984,84.2575,275.8556,0.00010637,1.405e-05,0.0,0 STARLINK-4255,1 53003U 22076T   24190.58616985  .00001405  00000-0  10637-3 0  9992,2 53003  53.2166 308.4984 0001220  84.2575 275.8556 15.08837944110894,6917.887,95.438,540.596,538.908,0.0
53003.0,STARLINK-4255,PAYLOAD,2024-07-08 15:39:28,15.08840735,0.0001231,53.2168,308.2008,84.0321,276.0811,0.00012706,1.735e-05,0.0,0 STARLINK-4255,1 53003U 22076T   24190.65240776  .00001735  00000-0  12706-3 0  9996,2 53003  53.2168 308.2008 0001231  84.0321 276.0811 15.08840735111373,6917.878,95.438,540.595,538.892,0.0
53003.0,STARLINK-4255,PAYLOAD,2024-07-09 13:54:52,15.08841045,0.0001171,53.2169,304.0372,87.1325,272.9801,7.0174e-05,8.29e-06,0.0,0 STARLINK-4255,1 53003U 22076T   24191.57976854  .00000829  00000-0  70174-4 0  9998,2 53003  53.2169 304.0372 0001171  87.1325 272.9801 15.08841045111046,6917.877,95.437,540.552,538.932,0.0
53003.0,STARLINK-4255,PAYLOAD,2024-07-09 17:05:37,15.08852964,0.0001267,53.2175,303.4386,101.5459,258.5675,4.6236e-05,4.48e-06,0.0,0 STARLINK-4255,1 53003U 22076T   24191.71224022  .00000448  00000-0  46236-4 0  9996,2 53003  53.2175 303.4386 0001267 101.5459 258.5675 15.08852964111531,6917.841,95.437,540.582,538.829,0.0
53003.0,STARLINK-4255,PAYLOAD,2024-07-10 01:02:34,15.08838549,0.0001276,53.2178,301.9569,77.3658,282.7476,9.7846e-06,-1.32e-06,0.0,0 STARLINK-4255,1 53003U 22076T   24192.04345072 -.00000132  00000-0  97846-5 0  9997,2 53003  53.2178 301.9569 0001276  77.3658 282.7476 15.08838549111587,6917.885,95.438,540.633,538.867,0.0
53003.0,STARLINK-4255,PAYLOAD,2024-07-10 13:45:39,15.08835516,0.0001319,53.2153,299.576,91.3796,268.7347,5.723e-05,6.23e-06,0.0,0 STARLINK-4255,1 53003U 22076T   24192.57337322  .00000623  00000-0  57230-4 0  9990,2 53003  53.2153 299.5760 0001319  91.3796 268.7347 15.08835516111191,6917.894,95.438,540.672,538.847,0.0
53003.0,STARLINK-4255,PAYLOAD,2024-07-10 16:56:25,15.0884021,0.0001388,53.217,298.9811,93.1168,266.9983,5.4091e-06,-2.02e-06,0.0,0 STARLINK-4255,1 53003U 22076T   24192.70585165 -.00000202  00000-0  54091-5 0  9992,2 53003  53.2170 298.9811 0001388  93.1168 266.9983 15.08840210111215,6917.88,95.438,540.705,538.785,0.0
53003.0,STARLINK-4255,PAYLOAD,2024-07-11 13:36:26,15.08834033,0.0001185,53.217,295.1142,91.9772,268.1356,-8.8133e-05,-1.69e-05,0.0,0 STARLINK-4255,1 53003U 22076T   24193.56697854 -.00001690  00000-0 -88133-4 0  9992,2 53003  53.2170 295.1142 0001185  91.9772 268.1356 15.08834033111341,6917.899,95.438,540.583,538.944,0.0
53003.0,STARLINK-4255,PAYLOAD,2024-07-11 16:47:13,15.08833093,0.0001198,53.2172,294.5205,89.4772,270.6358,-0.00010457,-1.951e-05,0.0,0 STARLINK-4255,1 53003U 22076T   24193.69946017 -.00001951  00000-0 -10457-3 0  9997,2 53003  53.2172 294.5205 0001198  89.4772 270.6358 15.08833093111831,6917.902,95.438,540.595,538.938,0.0
53003.0,STARLINK-4255,PAYLOAD,2024-07-12 13:27:13,15.08841443,0.0001192,53.216,290.6566,89.8409,270.272,0.00021634,3.157e-05,0.0,0 STARLINK-4255,1 53003U 22076T   24194.56057140  .00003157  00000-0  21634-3 0  9991,2 53003  53.2160 290.6566 0001192  89.8409 270.2720 15.08841443111961,6917.876,95.437,540.566,538.916,0.0
53003.0,STARLINK-4255,PAYLOAD,2024-07-13 13:18:00,15.08838675,0.0001362,53.2189,286.1999,103.6973,256.4171,0.00015583,2.193e-05,0.0,0 STARLINK-4255,1 53003U 22076T   24195.55417637  .00002193  00000-0  15583-3 0  9997,2 53003  53.2189 286.1999 0001362 103.6973 256.4171 15.08838675112119,6917.884,95.438,540.692,538.807,0.0
53003.0,STARLINK-4255,PAYLOAD,2024-07-14 13:08:47,15.08854605,0.0001357,53.2173,281.7374,94.533,265.5817,0.0001171,1.577e-05,0.0,0 STARLINK-4255,1 53003U 22076T   24196.54776786  .00001577  00000-0  11710-3 0  9993,2 53003  53.2173 281.7374 0001357  94.5330 265.5817 15.08854605112264,6917.836,95.437,540.639,538.762,0.0
53003.0,STARLINK-4255,PAYLOAD,2024-07-14 22:41:06,15.08846961,0.0001298,53.2151,279.9475,79.0512,281.0626,-1.3946e-05,-5.1e-06,0.0,0 STARLINK-4255,1 53003U 22076T   24196.94520888 -.00000510  00000-0 -13946-4 0  9999,2 53003  53.2151 279.9475 0001298  79.0512 281.0626 15.08846961112329,6917.859,95.437,540.622,538.826,0.0
53003.0,STARLINK-4255,PAYLOAD,2024-07-15 12:59:34,15.08841842,0.0001369,53.216,277.2749,81.6239,278.4908,3.9999e-05,3.49e-06,0.0,0 STARLINK-4255,1 53003U 22076T   24197.54137650  .00000349  00000-0  39999-4 0  9991,2 53003  53.2160 277.2749 0001369  81.6239 278.4908 15.08841842112414,6917.875,95.437,540.687,538.793,0.0
53003.0,STARLINK-4255,PAYLOAD,2024-07-15 14:34:57,15.08845167,0.0001519,53.217,276.9739,86.0667,274.0499,7.8592e-05,9.63e-06,0.0,0 STARLINK-4255,1 53003U 22076T   24197.60761344  .00000963  00000-0  78592-4 0  9995,2 53003  53.2170 276.9739 0001519  86.0667 274.0499 15.08845167111950,6917.865,95.437,540.78,538.679,0.0
53003.0,STARLINK-4255,PAYLOAD,2024-07-15 22:31:53,15.08841285,0.0001232,53.2155,275.4897,85.5875,274.5258,4.4744e-05,4.24e-06,0.0,0 STARLINK-4255,1 53003U 22076T   24197.93881527  .00000424  00000-0  44744-4 0  9991,2 53003  53.2155 275.4897 0001232  85.5875 274.5258 15.08841285112001,6917.876,95.437,540.594,538.889,0.0
53003.0,STARLINK-4255,PAYLOAD,2024-07-16 12:50:21,15.08850795,0.0001403,53.2158,272.8145,83.1231,276.9921,5.0207e-05,5.11e-06,0.0,0 STARLINK-4255,1 53003U 22076T   24198.53496971  .00000511  00000-0  50207-4 0  9991,2 53003  53.2158 272.8145 0001403  83.1231 276.9921 15.08850795112099,6917.847,95.437,540.683,538.742,0.0
53003.0,STARLINK-4255,PAYLOAD,2024-07-17 11:05:46,15.08828772,0.0001627,53.217,268.6478,86.1861,273.9317,5.9865e-05,6.65e-06,0.0,0 STARLINK-4255,1 53003U 22076T   24199.46234838  .00000665  00000-0  59865-4 0  9995,2 53003  53.2170 268.6478 0001627  86.1861 273.9317 15.08828772112709,6917.915,95.438,540.905,538.654,0.0
53003.0,STARLINK-4255,PAYLOAD,2024-07-18 04:35:01,15.0883942,0.0001491,53.2156,265.3816,78.0872,282.0287,0.00018834,2.711e-05,0.0,0 STARLINK-4255,1 53003U 22076T   24200.19098561  .00002711  00000-0  18834-3 0  9993,2 53003  53.2156 265.3816 0001491  78.0872 282.0287 15.08839420112815,6917.882,95.438,540.779,538.716,0.0
53003.0,STARLINK-4255,PAYLOAD,2024-07-18 10:56:33,15.08847727,0.0001538,53.2156,264.1909,79.847,280.2695,0.00039713,6.039e-05,0.0,0 STARLINK-4255,1 53003U 22076T   24200.45594401  .00006039  00000-0  39713-3 0  9992,2 53003  53.2156 264.1909 0001538  79.8470 280.2695 15.08847727112384,6917.857,95.437,540.786,538.658,0.0
53003.0,STARLINK-4255,PAYLOAD,2024-07-19 10:47:20,15.08845655,0.0001561,53.2146,259.7277,80.5139,279.6029,0.00024054,3.543e-05,0.0,0 STARLINK-4255,1 53003U 22076T   24201.44954421  .00003543  00000-0  24054-3 0  9993,2 53003  53.2146 259.7277 0001561  80.5139 279.6029 15.08845655113009,6917.863,95.437,540.808,538.648,0.0
53003.0,STARLINK-4255,PAYLOAD,2024-07-19 20:19:39,15.08842567,0.0001565,53.2143,257.9435,80.4102,279.7067,0.00014007,1.942e-05,0.0,0 STARLINK-4255,1 53003U 22076T   24201.84698387  .00001942  00000-0  14007-3 0  9991,2 53003  53.2143 257.9435 0001565  80.4102 279.7067 15.08842567112590,6917.873,95.437,540.82,538.655,0.0
53003.0,STARLINK-4255,PAYLOAD,2024-07-20 10:38:06,15.08863667,0.0001411,53.2142,255.2673,77.0942,283.0208,0.00028537,4.26e-05,0.0,0 STARLINK-4255,1 53003U 22076T   24202.44312947  .00004260  00000-0  28537-3 0  9992,2 53003  53.2142 255.2673 0001411  77.0942 283.0208 15.08863667113150,6917.808,95.436,540.649,538.697,0.0
53003.0,STARLINK-4255,PAYLOAD,2024-07-20 20:10:25,15.08846898,0.00016,53.2148,253.4827,78.5178,281.5993,6.6434e-05,7.7e-06,0.0,0 STARLINK-4255,1 53003U 22076T   24202.84057580  .00000770  00000-0  66434-4 0  9996,2 53003  53.2148 253.4827 0001600  78.5178 281.5993 15.08846898113212,6917.859,95.437,540.831,538.617,0.0
53003.0,STARLINK-4255,PAYLOAD,2024-07-21 04:07:22,15.08826295,0.000143,53.2153,251.997,92.1774,267.9382,-5.6339e-05,-1.184e-05,0.0,0 STARLINK-4255,1 53003U 22076T   24203.17179328 -.00001184  00000-0 -56339-4 0  9993,2 53003  53.2153 251.9970 0001430  92.1774 267.9382 15.08826295113269,6917.922,95.438,540.777,538.798,0.0
53003.0,STARLINK-4255,PAYLOAD,2024-07-21 08:53:31,15.08841481,0.000156,53.215,251.1015,105.8317,254.2847,4.5555e-05,4.37e-06,0.0,0 STARLINK-4255,1 53003U 22076T   24203.37050008  .00000437  00000-0  45555-4 0  9994,2 53003  53.2150 251.1015 0001560 105.8317 254.2847 15.08841481113299,6917.876,95.437,540.82,538.662,0.0
53003.0,STARLINK-4255,PAYLOAD,2024-07-22 11:55:04,15.08841948,0.0001295,53.2146,246.0507,98.0497,262.0642,-0.0001164,-2.14e-05,0.0,0 STARLINK-4255,1 53003U 22076T   24204.49658533 -.00002140  00000-0 -11640-3 0  9997,2 53003  53.2146 246.0507 0001295  98.0497 262.0642 15.08841948113467,6917.874,95.437,540.635,538.844,0.0
53003.0,STARLINK-4255,PAYLOAD,2024-07-23 10:10:28,15.08849279,0.0001461,53.2148,241.8863,103.8002,256.3153,0.00014558,2.03e-05,0.0,0 STARLINK-4255,1 53003U 22076T   24205.42393623  .00002030  00000-0  14558-3 0  9994,2 53003  53.2148 241.8863 0001461 103.8002 256.3153 15.08849279113603,6917.852,95.437,540.728,538.706,0.0
